start=new Date('2022-09-12T00:00:00.000Z').valueOf();
sats=[{"MEAN_MOTION":"15.70302251","INCLINATION":"97.6548","MEAN_MOTION_DOT":"-0.00061936","MEAN_ANOMALY":"30.5862","ELEMENT_SET_NO":"999","DECAY_DATE":null,"OBJECT_NAME":"STARLINK-4471","GP_ID":"212331597","ECCENTRICITY":"0.00014060","REF_FRAME":"TEME","RCS_SIZE":"LARGE","PERIOD":"91.702","CENTER_NAME":"EARTH","MEAN_ELEMENT_THEORY":"SGP4","FILE":"3569197","NORAD_CAT_ID":"53664","ARG_OF_PERICENTER":"129.8968","BSTAR":"-0.00051327000000","CLASSIFICATION_TYPE":"U","EPHEMERIS_TYPE":"0","OBJECT_TYPE":"PAYLOAD","REV_AT_EPOCH":"212","TIME_SYSTEM":"UTC","TLE_LINE1":"1 53664U 22105S   22254.91667824 -.00061936  00000-0 -51327-3 0  9990","TLE_LINE2":"2 53664  97.6548 132.9460 0001406 129.8968  30.5862 15.70302251  2129","MEAN_MOTION_DDOT":"0.0000000000000","PERIAPSIS":"357.087","SEMIMAJOR_AXIS":"6736.169","EPOCH":"2022-09-11T22:00:00.999936","OBJECT_ID":"2022-105S","RA_OF_ASC_NODE":"132.9460","SITE":"AFWTR","LAUNCH_DATE":"2022-08-31","COUNTRY_CODE":"US","APOAPSIS":"358.982"},{"MEAN_ANOMALY":"30.5569","MEAN_MOTION_DOT":"-0.00079140","INCLINATION":"97.6549","MEAN_MOTION":"15.70339399","OBJECT_NAME":"STARLINK-4334","DECAY_DATE":null,"ELEMENT_SET_NO":"999","RCS_SIZE":"LARGE","PERIOD":"91.700","CENTER_NAME":"EARTH","GP_ID":"212331606","ECCENTRICITY":"0.00017290","REF_FRAME":"TEME","BSTAR":"-0.00065645000000","CLASSIFICATION_TYPE":"U","ARG_OF_PERICENTER":"128.0845","NORAD_CAT_ID":"53665","FILE":"3569197","MEAN_ELEMENT_THEORY":"SGP4","REV_AT_EPOCH":"212","OBJECT_TYPE":"PAYLOAD","EPHEMERIS_TYPE":"0","SEMIMAJOR_AXIS":"6736.063","PERIAPSIS":"356.764","MEAN_MOTION_DDOT":"0.0000000000000","EPOCH":"2022-09-11T22:00:00.999936","TLE_LINE2":"2 53665  97.6549 132.9435 0001729 128.0845  30.5569 15.70339399  2123","TLE_LINE1":"1 53665U 22105T   22254.91667824 -.00079140  00000-0 -65645-3 0  9995","TIME_SYSTEM":"UTC","RA_OF_ASC_NODE":"132.9435","OBJECT_ID":"2022-105T","APOAPSIS":"359.093","COUNTRY_CODE":"US","LAUNCH_DATE":"2022-08-31","SITE":"AFWTR"},{"NORAD_CAT_ID":"53666","FILE":"3569361","MEAN_ELEMENT_THEORY":"SGP4","BSTAR":"-0.00057021000000","ARG_OF_PERICENTER":"133.7885","CLASSIFICATION_TYPE":"U","REF_FRAME":"TEME","GP_ID":"212359131","ECCENTRICITY":"0.00016770","RCS_SIZE":"LARGE","PERIOD":"91.702","CENTER_NAME":"EARTH","DECAY_DATE":null,"ELEMENT_SET_NO":"999","OBJECT_NAME":"STARLINK-4449","MEAN_MOTION_DOT":"-0.00068744","INCLINATION":"97.6556","MEAN_MOTION":"15.70303972","MEAN_ANOMALY":"27.9082","LAUNCH_DATE":"2022-08-31","SITE":"AFWTR","APOAPSIS":"359.159","COUNTRY_CODE":"US","OBJECT_ID":"2022-105U","RA_OF_ASC_NODE":"132.9465","TIME_SYSTEM":"UTC","PERIAPSIS":"356.900","SEMIMAJOR_AXIS":"6736.165","EPOCH":"2022-09-11T22:00:00.999936","MEAN_MOTION_DDOT":"0.0000000000000","TLE_LINE1":"1 53666U 22105U   22254.91667824 -.00068744  00000-0 -57021-3 0  9993","TLE_LINE2":"2 53666  97.6556 132.9465 0001677 133.7885  27.9082 15.70303972  1301","EPHEMERIS_TYPE":"0","REV_AT_EPOCH":"130","OBJECT_TYPE":"PAYLOAD"},{"OBJECT_NAME":"STARLINK-4406","DECAY_DATE":null,"ELEMENT_SET_NO":"999","MEAN_ANOMALY":"24.5165","MEAN_MOTION_DOT":"-0.00081093","MEAN_MOTION":"15.70327483","INCLINATION":"97.6553","CLASSIFICATION_TYPE":"U","BSTAR":"-0.00067316000000","ARG_OF_PERICENTER":"134.6784","FILE":"3569361","NORAD_CAT_ID":"53667","MEAN_ELEMENT_THEORY":"SGP4","PERIOD":"91.701","RCS_SIZE":"LARGE","CENTER_NAME":"EARTH","ECCENTRICITY":"0.00018110","GP_ID":"212359700","REF_FRAME":"TEME","PERIAPSIS":"356.742","MEAN_MOTION_DDOT":"0.0000000000000","SEMIMAJOR_AXIS":"6736.097","EPOCH":"2022-09-11T22:00:00.999936","TLE_LINE1":"1 53667U 22105V   22254.91667824 -.00081093  00000-0 -67316-3 0  9994","TLE_LINE2":"2 53667  97.6553 132.9322 0001811 134.6784  24.5165 15.70327483  1307","TIME_SYSTEM":"UTC","REV_AT_EPOCH":"130","OBJECT_TYPE":"PAYLOAD","EPHEMERIS_TYPE":"0","APOAPSIS":"359.182","COUNTRY_CODE":"US","LAUNCH_DATE":"2022-08-31","SITE":"AFWTR","RA_OF_ASC_NODE":"132.9322","OBJECT_ID":"2022-105V"},{"INCLINATION":"97.6549","MEAN_MOTION":"15.70283470","MEAN_MOTION_DOT":"-0.00076527","MEAN_ANOMALY":"36.4306","DECAY_DATE":null,"ELEMENT_SET_NO":"999","OBJECT_NAME":"STARLINK-4458","GP_ID":"212331739","ECCENTRICITY":"0.00018060","REF_FRAME":"TEME","RCS_SIZE":"LARGE","PERIOD":"91.703","CENTER_NAME":"EARTH","MEAN_ELEMENT_THEORY":"SGP4","NORAD_CAT_ID":"53668","FILE":"3569206","ARG_OF_PERICENTER":"125.8673","BSTAR":"-0.00063601000000","CLASSIFICATION_TYPE":"U","EPHEMERIS_TYPE":"0","OBJECT_TYPE":"PAYLOAD","REV_AT_EPOCH":"212","TIME_SYSTEM":"UTC","TLE_LINE2":"2 53668  97.6549 132.9473 0001806 125.8673  36.4306 15.70283470  2120","TLE_LINE1":"1 53668U 22105W   22254.91667824 -.00076527  00000-0 -63601-3 0  9994","PERIAPSIS":"356.872","EPOCH":"2022-09-11T22:00:00.999936","SEMIMAJOR_AXIS":"6736.223","MEAN_MOTION_DDOT":"0.0000000000000","OBJECT_ID":"2022-105W","RA_OF_ASC_NODE":"132.9473","SITE":"AFWTR","LAUNCH_DATE":"2022-08-31","COUNTRY_CODE":"US","APOAPSIS":"359.305"},{"TIME_SYSTEM":"UTC","TLE_LINE2":"2 53669  97.6564 132.9461 0001682 129.6165  31.3999 15.70242229  1303","TLE_LINE1":"1 53669U 22105X   22254.91667824  .00044180  00000-0  36428-3 0  9990","PERIAPSIS":"357.073","EPOCH":"2022-09-11T22:00:00.999936","SEMIMAJOR_AXIS":"6736.341","MEAN_MOTION_DDOT":"0.0000000000000","EPHEMERIS_TYPE":"0","OBJECT_TYPE":"PAYLOAD","REV_AT_EPOCH":"130","SITE":"AFWTR","LAUNCH_DATE":"2022-08-31","COUNTRY_CODE":"US","APOAPSIS":"359.339","OBJECT_ID":"2022-105X","RA_OF_ASC_NODE":"132.9461","DECAY_DATE":null,"ELEMENT_SET_NO":"999","OBJECT_NAME":"STARLINK-4464","INCLINATION":"97.6564","MEAN_MOTION":"15.70242229","MEAN_MOTION_DOT":"0.00044180","MEAN_ANOMALY":"31.3999","MEAN_ELEMENT_THEORY":"SGP4","NORAD_CAT_ID":"53669","FILE":"3569361","CLASSIFICATION_TYPE":"U","BSTAR":"0.00036428000000","ARG_OF_PERICENTER":"129.6165","ECCENTRICITY":"0.00016820","GP_ID":"212360052","REF_FRAME":"TEME","PERIOD":"91.706","RCS_SIZE":"LARGE","CENTER_NAME":"EARTH"},{"OBJECT_TYPE":"PAYLOAD","REV_AT_EPOCH":"130","EPHEMERIS_TYPE":"0","TLE_LINE1":"1 53670U 22105Y   22254.91667824 -.00016239  00000-0 -13331-3 0  9996","TLE_LINE2":"2 53670  97.6547 132.9480 0001910 130.5736  32.8851 15.70252225  1306","PERIAPSIS":"356.891","SEMIMAJOR_AXIS":"6736.313","MEAN_MOTION_DDOT":"0.0000000000000","EPOCH":"2022-09-11T22:00:00.999936","TIME_SYSTEM":"UTC","RA_OF_ASC_NODE":"132.9480","OBJECT_ID":"2022-105Y","COUNTRY_CODE":"US","APOAPSIS":"359.464","SITE":"AFWTR","LAUNCH_DATE":"2022-08-31","MEAN_ANOMALY":"32.8851","INCLINATION":"97.6547","MEAN_MOTION":"15.70252225","MEAN_MOTION_DOT":"-0.00016239","OBJECT_NAME":"STARLINK-4459","ELEMENT_SET_NO":"999","DECAY_DATE":null,"RCS_SIZE":"LARGE","CENTER_NAME":"EARTH","PERIOD":"91.705","REF_FRAME":"TEME","GP_ID":"212359547","ECCENTRICITY":"0.00019100","BSTAR":"-0.00013331000000","ARG_OF_PERICENTER":"130.5736","CLASSIFICATION_TYPE":"U","MEAN_ELEMENT_THEORY":"SGP4","NORAD_CAT_ID":"53670","FILE":"3569361"},{"ARG_OF_PERICENTER":"130.9770","BSTAR":"-0.00046156000000","CLASSIFICATION_TYPE":"U","FILE":"3569361","NORAD_CAT_ID":"53671","MEAN_ELEMENT_THEORY":"SGP4","RCS_SIZE":"LARGE","PERIOD":"91.702","CENTER_NAME":"EARTH","ECCENTRICITY":"0.00019610","GP_ID":"212359286","REF_FRAME":"TEME","OBJECT_NAME":"STARLINK-4440","ELEMENT_SET_NO":"999","DECAY_DATE":null,"MEAN_ANOMALY":"31.8519","MEAN_MOTION_DOT":"-0.00055747","MEAN_MOTION":"15.70299407","INCLINATION":"97.6548","APOAPSIS":"359.364","COUNTRY_CODE":"US","LAUNCH_DATE":"2022-08-31","SITE":"AFWTR","RA_OF_ASC_NODE":"132.9471","OBJECT_ID":"2022-105Z","PERIAPSIS":"356.722","EPOCH":"2022-09-11T22:00:00.999936","SEMIMAJOR_AXIS":"6736.178","MEAN_MOTION_DDOT":"0.0000000000000","TLE_LINE1":"1 53671U 22105Z   22254.91667824 -.00055747  00000-0 -46156-3 0  9995","TLE_LINE2":"2 53671  97.6548 132.9471 0001961 130.9770  31.8519 15.70299407  1309","TIME_SYSTEM":"UTC","REV_AT_EPOCH":"130","OBJECT_TYPE":"PAYLOAD","EPHEMERIS_TYPE":"0"},{"FILE":"3569361","NORAD_CAT_ID":"53672","MEAN_ELEMENT_THEORY":"SGP4","CLASSIFICATION_TYPE":"U","BSTAR":"0.00008966300000","ARG_OF_PERICENTER":"127.2957","GP_ID":"212360008","REF_FRAME":"TEME","ECCENTRICITY":"0.00015470","CENTER_NAME":"EARTH","RCS_SIZE":"LARGE","PERIOD":"91.705","ELEMENT_SET_NO":"999","DECAY_DATE":null,"OBJECT_NAME":"STARLINK-4428","MEAN_MOTION_DOT":"0.00010733","MEAN_MOTION":"15.70245696","INCLINATION":"97.6557","MEAN_ANOMALY":"38.0224","LAUNCH_DATE":"2022-08-31","SITE":"AFWTR","APOAPSIS":"359.238","COUNTRY_CODE":"US","OBJECT_ID":"2022-105AA","RA_OF_ASC_NODE":"132.9488","TIME_SYSTEM":"UTC","PERIAPSIS":"357.154","SEMIMAJOR_AXIS":"6736.331","EPOCH":"2022-09-11T22:00:00.999936","MEAN_MOTION_DDOT":"0.0000000000000","TLE_LINE2":"2 53672  97.6557 132.9488 0001547 127.2957  38.0224 15.70245696  1307","TLE_LINE1":"1 53672U 22105AA  22254.91667824  .00010733  00000-0  89663-4 0  9991","EPHEMERIS_TYPE":"0","REV_AT_EPOCH":"130","OBJECT_TYPE":"PAYLOAD"},{"BSTAR":"0.00007881200000","ARG_OF_PERICENTER":"141.4791","CLASSIFICATION_TYPE":"U","MEAN_ELEMENT_THEORY":"SGP4","FILE":"3569361","NORAD_CAT_ID":"53673","PERIOD":"91.703","RCS_SIZE":"LARGE","CENTER_NAME":"EARTH","ECCENTRICITY":"0.00018150","GP_ID":"212359854","REF_FRAME":"TEME","OBJECT_NAME":"STARLINK-4456","ELEMENT_SET_NO":"999","DECAY_DATE":null,"MEAN_ANOMALY":"22.5490","MEAN_MOTION":"15.70283776","INCLINATION":"97.6563","MEAN_MOTION_DOT":"0.00009432","COUNTRY_CODE":"US","APOAPSIS":"359.310","SITE":"AFWTR","LAUNCH_DATE":"2022-08-31","RA_OF_ASC_NODE":"132.9476","OBJECT_ID":"2022-105AB","TLE_LINE2":"2 53673  97.6563 132.9476 0001815 141.4791  22.5490 15.70283776  1308","TLE_LINE1":"1 53673U 22105AB  22254.91667824  .00009432  00000-0  78812-4 0  9990","PERIAPSIS":"356.865","MEAN_MOTION_DDOT":"0.0000000000000","SEMIMAJOR_AXIS":"6736.222","EPOCH":"2022-09-11T22:00:00.999936","TIME_SYSTEM":"UTC","OBJECT_TYPE":"PAYLOAD","REV_AT_EPOCH":"130","EPHEMERIS_TYPE":"0"}];
